PAKSAT-1R               
1 37779U 11042A   26187.72488556  .00000168  00000+0  00000+0 0  9993
2 37779   0.7364  84.4256 0003025 357.2427 142.0225  1.00276243 54677
SES-2                   
1 37809U 11049A   26187.67560046 -.00000181  00000+0  00000+0 0  9999
2 37809   0.1053  92.3809 0002828  12.7893 335.7044  1.00271297 54159
ARABSAT-5C              
1 37810U 11049B   26187.86386976  .00000139  00000+0  00000+0 0  9992
2 37810   0.0468 357.9282 0003690 128.4637 129.4460  1.00274442 54238
EUTELSAT 7 WEST A       
1 37816U 11051A   26187.57317102 -.00000046  00000+0  00000+0 0  9992
2 37816   0.0623  15.3093 0004596 101.4574   6.8105  1.00271287 54079
QUETZSAT 1              
1 37826U 11054A   26187.84464318 -.00000227  00000+0  00000+0 0  9999
2 37826   0.0223 312.6202 0002797 161.5457  37.7297  1.00270816 50077
INTELSAT 18 (IS-18)     
1 37834U 11056A   26187.82427644  .00000068  00000+0  00000+0 0  9991
2 37834   0.0121 315.1819 0001876 160.9422 285.4064  1.00271417 54006
EUTELSAT 16A            
1 37836U 11057A   26187.79178450  .00000119  00000+0  00000+0 0  9995
2 37836   0.0381 352.5963 0005811 109.5696 123.6269  1.00270560  7530
VIASAT-1                
1 37843U 11059A   26187.62321207 -.00000009  00000+0  00000+0 0  9996
2 37843   0.0153   6.0642 0002260 103.5030 284.2929  1.00269588 47518
ASIASAT 7               
1 37933U 11069A   26187.81857816 -.00000319  00000+0  00000+0 0  9992
2 37933   0.0187 351.0431 0001222  96.7930 237.1507  1.00269212 45053
BEIDOU-2 IGSO-5         
1 37948U 11073A   26183.72937883 -.00000128  00000+0  00000+0 0  9990
2 37948  47.6496 271.3544 0114527 222.0502 141.5350  1.00270596 53296
LUCH-5A                 
1 37951U 11074B   26187.63408068 -.00000039  00000+0  00000+0 0  9998
2 37951   8.7999  73.5230 0002613  51.3753 194.9372  1.00272630 53245
NIGCOMSAT 1R            
1 38014U 11077A   26187.83038770  .00000160  00000+0  00000+0 0  9997
2 38014   0.0041 102.5440 0002404 248.3914 275.2981  1.00273241 53158
WGS F4 (USA 233)        
1 38070U 12003A   26187.81428417  .00000000  00000+0  00000+0 0  9991
2 38070   0.0214  31.1032 0001357 119.1922 156.0294  1.00269522 44347
SES-4                   
1 38087U 12007A   26187.85558279 -.00000153  00000+0  00000+0 0  9997
2 38087   0.0188  56.4966 0002432  48.5020 105.8473  1.00270085 52425
BEIDOU-2 G5             
1 38091U 12008A   26187.87154339  .00000070  00000+0  00000+0 0  9991
2 38091   3.6198  69.5776 0007451 273.7217 314.0398  1.00268616 52562
MUOS-1                  
1 38093U 12009A   26187.69756399 -.00000116  00000+0  00000+0 0  9990
2 38093   5.5151  47.1323 0057365   2.9827  25.7190  1.00272346 52642
INTELSAT 22 (IS-22)     
1 38098U 12011A   26187.87414339  .00000000  00000+0  00000+0 0  9994
2 38098   0.0259  53.2434 0001774  69.2271 189.1551  1.00269463  7382
APSTAR-7                
1 38107U 12013A   26187.77910948 -.00000087  00000+0  00000+0 0  9999
2 38107   0.0364  92.0721 0003113  26.1845 163.4890  1.00271220 52002
YAHSAT 1B               
1 38245U 12016A   26187.58417772  .00000141  00000+0  00000+0 0  9991
2 38245   0.0847  89.1696 0003275  38.0927  55.2136  1.00269959 45808
AEHF-2 (USA 235)        
1 38254U 12019A   26187.85662279 -.00000124  00000+0  00000+0 0  9990
2 38254   6.6950  57.3431 0002184  47.4346 111.9215  1.00272850  7187
JCSAT-13                
1 38331U 12023A   26187.81300971 -.00000341  00000+0  00000+0 0  9996
2 38331   0.0014  37.1260 0002876  87.1017 217.2554  1.00272255 51737
VINASAT-2               
1 38332U 12023B   26187.74347403 -.00000314  00000+0  00000+0 0  9990
2 38332   0.0127   0.8824 0002317 108.8466 214.4956  1.00271445 46857
NIMIQ 6                 
1 38342U 12026A   26187.84186985 -.00000159  00000+0  00000+0 0  9998
2 38342   0.0291 287.7176 0002693 181.7796  27.2922  1.00270988 50612
ZHONGXING-2A            
1 38352U 12028A   26187.71395791 -.00000278  00000+0  00000+0 0  9996
2 38352   1.5020  83.6485 0001917  29.4870 166.8050  1.00269729 51494
INTELSAT 19 (IS-19)     
1 38356U 12030A   26187.82150308 -.00000042  00000+0  00000+0 0  9997
2 38356   0.0012  35.3603 0003147  83.5476 267.6332  1.00271596 50643
ECHOSTAR 17             
1 38551U 12035A   26186.98326441 -.00000061  00000+0  00000+0 0  9999
2 38551   0.0184  35.8998 0001856  72.9345  62.0178  1.00272633 51250
METEOSAT-10 (MSG-3)     
1 38552U 12035B   26187.85974280  .00000005  00000+0  00000+0 0  9994
2 38552   4.7151  60.9200 0001312  18.2458 155.2669  1.00269731 51059
SES-5                   
1 38652U 12036A   26187.07667602  .00000048  00000+0  00000+0 0  9994
2 38652   0.0475 315.2819 0002144 151.6577 209.7104  1.00273320 44643
INTELSAT 20 (IS-20)     
1 38740U 12043A   26187.80221769 -.00000009  00000+0  00000+0 0  9999
2 38740   0.0111  49.4354 0001502 132.4135 100.2112  1.00268375 50940
HYLAS 2                 
1 38741U 12043B   26187.84550986 -.00000244  00000+0  00000+0 0  9991
2 38741   2.4747  80.8355 0002572  47.7661  28.0287  1.00270872 50970
INTELSAT 21 (IS-21)     
1 38749U 12045A   26187.84836987 -.00000270  00000+0  00000+0 0  9998
2 38749   0.0147 328.6751 0001792 156.8930  46.6734  1.00270530 50720
ASTRA 2F                
1 38778U 12051A   26187.72289221  .00000165  00000+0  00000+0 0  9999
2 38778   0.0617 249.7689 0002624 289.9660  33.4230  1.00273804 41339
