OBJECT_NAME,OBJECT_ID,EPOCH,MEAN_MOTION,ECCENTRICITY,INCLINATION,RA_OF_ASC_NODE,ARG_OF_PERICENTER,MEAN_ANOMALY,EPHEMERIS_TYPE,CLASSIFICATION_TYPE,NORAD_CAT_ID,ELEMENT_SET_NO,REV_AT_EPOCH,BSTAR,MEAN_MOTION_DOT,MEAN_MOTION_DDOT
PAKSAT-1R,2011-042A,2026-07-06T17:23:50.112384,1.00276243,.0003025,0.7364,84.4256,357.2427,142.0225,0,U,37779,999,5467,0,.168E-5,0
SES-2,2011-049A,2026-07-06T16:12:51.879744,1.00271297,.0002828,0.1053,92.3809,12.7893,335.7044,0,U,37809,999,5415,0,-.181E-5,0
ARABSAT-5C,2011-049B,2026-07-06T20:43:58.347264,1.00274442,.000369,0.0468,357.9282,128.4637,129.4460,0,U,37810,999,5423,0,.139E-5,0
EUTELSAT 7 WEST A,2011-051A,2026-07-06T13:45:21.976128,1.00271287,.0004596,0.0623,15.3093,101.4574,6.8105,0,U,37816,999,5407,0,-.46E-6,0
QUETZSAT 1,2011-054A,2026-07-06T20:16:17.170752,1.00270816,.0002797,0.0223,312.6202,161.5457,37.7297,0,U,37826,999,5007,0,-.227E-5,0
INTELSAT 18 (IS-18),2011-056A,2026-07-06T19:46:57.484416,1.00271417,.0001876,0.0121,315.1819,160.9422,285.4064,0,U,37834,999,5400,0,.68E-6,0
EUTELSAT 16A,2011-057A,2026-07-06T19:00:10.180800,1.00270560,.0005811,0.0381,352.5963,109.5696,123.6269,0,U,37836,999,753,0,.119E-5,0
VIASAT-1,2011-059A,2026-07-06T14:57:25.522848,1.00269588,.000226,0.0153,6.0642,103.5030,284.2929,0,U,37843,999,4751,0,-.9E-7,0
ASIASAT 7,2011-069A,2026-07-06T19:38:45.153024,1.00269212,.0001222,0.0187,351.0431,96.7930,237.1507,0,U,37933,999,4505,0,-.319E-5,0
BEIDOU-2 IGSO-5,2011-073A,2026-07-02T17:30:18.330912,1.00270596,.01145273,47.6496,271.3544,222.0502,141.5350,0,U,37948,999,5329,0,-.128E-5,0
LUCH-5A,2011-074B,2026-07-06T15:13:04.570752,1.00272630,.0002613,8.7999,73.5230,51.3753,194.9372,0,U,37951,999,5324,0,-.39E-6,0
NIGCOMSAT 1R,2011-077A,2026-07-06T19:55:45.497280,1.00273241,.0002404,0.0041,102.5440,248.3914,275.2981,0,U,38014,999,5315,0,.16E-5,0
WGS F4 (USA 233),2012-003A,2026-07-06T19:32:34.152288,1.00269522,.0001357,0.0214,31.1032,119.1922,156.0294,0,U,38070,999,4434,0,0,0
SES-4,2012-007A,2026-07-06T20:32:02.353056,1.00270085,.0002432,0.0188,56.4966,48.5020,105.8473,0,U,38087,999,5242,0,-.153E-5,0
BEIDOU-2 G5,2012-008A,2026-07-06T20:55:01.348896,1.00268616,.0007451,3.6198,69.5776,273.7217,314.0398,0,U,38091,999,5256,0,.7E-6,0
MUOS-1,2012-009A,2026-07-06T16:44:29.528736,1.00272346,.0057365,5.5151,47.1323,2.9827,25.7190,0,U,38093,999,5264,0,-.116E-5,0
INTELSAT 22 (IS-22),2012-011A,2026-07-06T20:58:45.988896,1.00269463,.0001774,0.0259,53.2434,69.2271,189.1551,0,U,38098,999,738,0,0,0
APSTAR-7,2012-013A,2026-07-06T18:41:55.059072,1.00271220,.0003113,0.0364,92.0721,26.1845,163.4890,0,U,38107,999,5200,0,-.87E-6,0
YAHSAT 1B,2012-016A,2026-07-06T14:01:12.955008,1.00269959,.0003275,0.0847,89.1696,38.0927,55.2136,0,U,38245,999,4580,0,.141E-5,0
AEHF-2 (USA 235),2012-019A,2026-07-06T20:33:32.209056,1.00272850,.0002184,6.6950,57.3431,47.4346,111.9215,0,U,38254,999,718,0,-.124E-5,0
JCSAT-13,2012-023A,2026-07-06T19:30:44.038944,1.00272255,.0002876,0.0014,37.1260,87.1017,217.2554,0,U,38331,999,5173,0,-.341E-5,0
VINASAT-2,2012-023B,2026-07-06T17:50:36.156192,1.00271445,.0002317,0.0127,0.8824,108.8466,214.4956,0,U,38332,999,4685,0,-.314E-5,0
NIMIQ 6,2012-026A,2026-07-06T20:12:17.555040,1.00270988,.0002693,0.0291,287.7176,181.7796,27.2922,0,U,38342,999,5061,0,-.159E-5,0
ZHONGXING-2A,2012-028A,2026-07-06T17:08:05.963424,1.00269729,.0001917,1.5020,83.6485,29.4870,166.8050,0,U,38352,999,5149,0,-.278E-5,0
INTELSAT 19 (IS-19),2012-030A,2026-07-06T19:42:57.866112,1.00271596,.0003147,0.0012,35.3603,83.5476,267.6332,0,U,38356,999,5064,0,-.42E-6,0
ECHOSTAR 17,2012-035A,2026-07-05T23:35:54.045024,1.00272633,.0001856,0.0184,35.8998,72.9345,62.0178,0,U,38551,999,5125,0,-.61E-6,0
METEOSAT-10 (MSG-3),2012-035B,2026-07-06T20:38:01.777920,1.00269731,.0001312,4.7151,60.9200,18.2458,155.2669,0,U,38552,999,5105,0,.5E-7,0
SES-5,2012-036A,2026-07-06T01:50:24.808128,1.00273320,.0002144,0.0475,315.2819,151.6577,209.7104,0,U,38652,999,4464,0,.48E-6,0
INTELSAT 20 (IS-20),2012-043A,2026-07-06T19:15:11.608416,1.00268375,.0001502,0.0111,49.4354,132.4135,100.2112,0,U,38740,999,5094,0,-.9E-7,0
HYLAS 2,2012-043B,2026-07-06T20:17:32.051904,1.00270872,.0002572,2.4747,80.8355,47.7661,28.0287,0,U,38741,999,5097,0,-.244E-5,0
INTELSAT 21 (IS-21),2012-045A,2026-07-06T20:21:39.156768,1.00270530,.0001792,0.0147,328.6751,156.8930,46.6734,0,U,38749,999,5072,0,-.27E-5,0
ASTRA 2F,2012-051A,2026-07-06T17:20:57.886944,1.00273804,.0002624,0.0617,249.7689,289.9660,33.4230,0,U,38778,999,4133,0,.165E-5,0
